GLOBALSTAR M079 [+]     
1 37188U 10054A   22261.47987455 -.00000088  00000+0  85651-4 0  9994
2 37188  52.0047 312.1936 0000347 124.3267 342.0478 12.62265179550505
GLOBALSTAR M074 [+]     
1 37189U 10054B   22261.17375764 -.00000090  00000+0  77502-4 0  9995
2 37189  52.0024 312.6042 0000492 100.6316 294.0122 12.62262945550462
GLOBALSTAR M076 [+]     
1 37190U 10054C   22261.11816381 -.00000080  00000+0  13267-3 0  9992
2 37190  52.0039 312.8538 0000124  86.9225 294.3565 12.62255698550460
GLOBALSTAR M077 [+]     
1 37191U 10054D   22260.82159087 -.00000092  00000+0  65587-4 0  9999
2 37191  52.0056 270.3233 0000361  74.5721  97.8209 12.62266004550438
GLOBALSTAR M075 [+]     
1 37192U 10054E   22261.52545230 -.00000098  00000+0  34296-4 0  9996
2 37192  51.9975 354.4245 0000421 119.4726 253.8956 12.62267797549751
GLOBALSTAR M073 [+]     
1 37193U 10054F   22260.35780630 -.00000092  00000+0  66124-4 0  9991
2 37193  52.0043 271.0368 0000319  84.6823  19.6514 12.62267465551064
GLOBALSTAR M083 [+]     
1 37739U 11033A   22261.24920087 -.00000092  00000+0  64304-4 0  9994
2 37739  51.9844 218.4203 0000412 105.6868  32.9892 12.62269956520551
GLOBALSTAR M088 [+]     
1 37740U 11033B   22260.87912056 -.00000097  00000+0  37492-4 0  9994
2 37740  51.9719 125.8851 0000538  95.5181 279.7538 12.62265914515695
GLOBALSTAR M091 [+]     
1 37741U 11033C   22261.00511848 -.00000104  00000+0 -10320-5 0  9997
2 37741  51.9991  87.2601 0000679 104.2896  62.9735 12.62267575516753
GLOBALSTAR M085 [+]     
1 37742U 11033D   22261.52549278 -.00000107  00000+0 -15444-4 0  9997
2 37742  51.9884  37.6009 0000659 107.2631 326.2994 12.62267476517567
GLOBALSTAR M081 [+]     
1 37743U 11033E   22261.38332264 -.00000108  00000+0 -21827-4 0  9990
2 37743  51.9977  40.2023 0000464 111.2088 275.8840 12.62263286517588
GLOBALSTAR M089 [+]     
1 37744U 11033F   22261.43423181 -.00000098  00000+0  34961-4 0  9996
2 37744  51.9959 354.4671 0000545  72.1159   6.0692 12.62267788518303
GLOBALSTAR M084 [+]     
1 38040U 11080A   22261.30415934 -.00000083  00000+0  11330-3 0  9999
2 38040  51.9993 221.6202 0000507  47.2291  99.3441 12.62268521496290
GLOBALSTAR M080 [+]     
1 38041U 11080B   22260.93267632 -.00000090  00000+0  78418-4 0  9997
2 38041  52.0042 224.0061 0000514  34.6012 342.4195 12.62268786496096
GLOBALSTAR M082 [+]     
1 38042U 11080C   22261.13066152 -.00000089  00000+0  83568-4 0  9995
2 38042  52.0070 178.7431 0000795 103.4421  34.5493 12.62271162496995
GLOBALSTAR M092 [+]     
1 38043U 11080D   22261.16984163 -.00000106  00000+0 -12699-4 0  9998
2 38043  52.0076 268.9480 0000625  60.8519  14.7822 12.62263648495494
GLOBALSTAR M090 [+]     
1 38044U 11080E   22261.48119333 -.00000092  00000+0  63820-4 0  9998
2 38044  51.9879 172.7775 0000474  87.2883  84.4794 12.62266154497020
GLOBALSTAR M086 [+]     
1 38045U 11080F   22261.18575282 -.00000093  00000+0  57678-4 0  9990
2 38045  51.9890 174.1488 0000610 279.0463 230.3802 12.62265434496995
GLOBALSTAR M097 [+]     
1 39072U 13005A   22260.86289605 -.00000106  00000+0 -12326-4 0  9992
2 39072  52.0039  88.6581 0000613 114.5696 245.5235 12.62275154444104
GLOBALSTAR M093 [+]     
1 39073U 13005B   22260.99456788 -.00000105  00000+0 -60565-5 0  9993
2 39073  51.9806  83.1652 0000599 121.7103 238.3822 12.62264857444199
GLOBALSTAR M094 [+]     
1 39074U 13005C   22260.59879393 -.00000092  00000+0  68279-4 0  9994
2 39074  51.9988 357.7529 0000488 115.6073 244.4844 12.62268793445634
GLOBALSTAR M096 [+]     
1 39075U 13005D   22260.69128889 -.00000104  00000+0  29252-6 0  9997
2 39075  52.0086  45.1990 0000567 116.3562 243.7363 12.62269833444560
GLOBALSTAR M078 [+]     
1 39076U 13005E   22261.06070304 -.00000186  00000+0 -46000-3 0  9996
2 39076  51.9864 129.9505 0001363 103.9400 256.1618 12.62262328443443
GLOBALSTAR M095 [+]     
1 39077U 13005F   22260.92843920 -.00000096  00000+0  43833-4 0  9994
2 39077  51.9788 128.0466 0001005 112.3318 247.7655 12.62270857443072
GLOBALSTAR FM15 [+]     
1 52888U 22064A   22261.33904385 -.00000128  00000+0  00000+0 0  9993
2 52888  51.9776 272.4444 0009734 184.4753 175.6060 13.37541629 12166
